start=new Date('2022-02-11T00:00:00.000Z').valueOf();
sats=[{"GP_ID":"195711611","ARG_OF_PERICENTER":"70.2955","DECAY_DATE":null,"OBJECT_NAME":"STARLINK-1212","EPHEMERIS_TYPE":"0","INCLINATION":"53.0538","FILE":"3297147","TIME_SYSTEM":"UTC","OBJECT_ID":"2020-012AX","ELEMENT_SET_NO":"999","SEMIMAJOR_AXIS":"6925.355","MEAN_ELEMENT_THEORY":"SGP4","CLASSIFICATION_TYPE":"U","REV_AT_EPOCH":"11115","COUNTRY_CODE":"US","MEAN_MOTION_DOT":"0.00000038","TLE_LINE1":"1 45223U 20012AX  22041.85527264  .00000038  00000-0  21451-4 0  9997","PERIOD":"95.592","NORAD_CAT_ID":"45223","RA_OF_ASC_NODE":"205.7768","ECCENTRICITY":"0.00015700","PERIAPSIS":"546.133","RCS_SIZE":"LARGE","MEAN_MOTION_DDOT":"0.0000000000000","MEAN_MOTION":"15.06397867","CENTER_NAME":"EARTH","APOAPSIS":"548.307","BSTAR":"0.00002145100000","LAUNCH_DATE":"2020-02-17","EPOCH":"2022-02-10T20:31:35.556096","SITE":"AFETR","REF_FRAME":"TEME","TLE_LINE2":"2 45223  53.0538 205.7768 0001570  70.2955 289.8204 15.06397867111152","OBJECT_TYPE":"PAYLOAD","MEAN_ANOMALY":"289.8204"},{"ECCENTRICITY":"0.00043440","MEAN_MOTION_DDOT":"0.0000000000000","PERIAPSIS":"336.837","RCS_SIZE":"LARGE","CENTER_NAME":"EARTH","MEAN_MOTION":"15.76715730","APOAPSIS":"342.674","LAUNCH_DATE":"2020-02-17","BSTAR":"-0.00002051200000","EPOCH":"2022-02-10T20:03:28.838016","MEAN_ANOMALY":"351.4237","OBJECT_TYPE":"PAYLOAD","TLE_LINE2":"2 45224  53.0486  89.7965 0004344   8.6857 351.4237 15.76715730112650","REF_FRAME":"TEME","SITE":"AFETR","ARG_OF_PERICENTER":"8.6857","GP_ID":"195712363","EPHEMERIS_TYPE":"0","DECAY_DATE":null,"OBJECT_NAME":"STARLINK-1214","TIME_SYSTEM":"UTC","FILE":"3297147","INCLINATION":"53.0486","MEAN_ELEMENT_THEORY":"SGP4","CLASSIFICATION_TYPE":"U","SEMIMAJOR_AXIS":"6717.890","ELEMENT_SET_NO":"999","OBJECT_ID":"2020-012AY","COUNTRY_CODE":"US","REV_AT_EPOCH":"11265","NORAD_CAT_ID":"45224","PERIOD":"91.329","MEAN_MOTION_DOT":"-0.00004017","TLE_LINE1":"1 45224U 20012AY  22041.83575044 -.00004017  00000-0 -20512-4 0  9995","RA_OF_ASC_NODE":"89.7965"},{"ARG_OF_PERICENTER":"62.5307","GP_ID":"195713112","EPHEMERIS_TYPE":"0","OBJECT_NAME":"STARLINK-1215","DECAY_DATE":null,"TIME_SYSTEM":"UTC","FILE":"3297147","INCLINATION":"53.0527","MEAN_ELEMENT_THEORY":"SGP4","CLASSIFICATION_TYPE":"U","ELEMENT_SET_NO":"999","SEMIMAJOR_AXIS":"6925.330","OBJECT_ID":"2020-012AZ","COUNTRY_CODE":"US","REV_AT_EPOCH":"11110","NORAD_CAT_ID":"45225","PERIOD":"95.592","TLE_LINE1":"1 45225U 20012AZ  22041.87370387  .00001596  00000-0  12603-3 0  9991","MEAN_MOTION_DOT":"0.00001596","RA_OF_ASC_NODE":"205.6728","ECCENTRICITY":"0.00016980","MEAN_MOTION_DDOT":"0.0000000000000","PERIAPSIS":"546.019","RCS_SIZE":"LARGE","CENTER_NAME":"EARTH","MEAN_MOTION":"15.06405977","APOAPSIS":"548.371","LAUNCH_DATE":"2020-02-17","BSTAR":"0.00012603000000","EPOCH":"2022-02-10T20:58:08.014368","MEAN_ANOMALY":"297.5854","OBJECT_TYPE":"PAYLOAD","TLE_LINE2":"2 45225  53.0527 205.6728 0001698  62.5307 297.5854 15.06405977111107","SITE":"AFETR","REF_FRAME":"TEME"},{"COUNTRY_CODE":"US","REV_AT_EPOCH":"11105","PERIOD":"95.592","NORAD_CAT_ID":"45226","TLE_LINE1":"1 45226U 20012BA  22041.81473396  .00001224  00000-0  10102-3 0  9990","MEAN_MOTION_DOT":"0.00001224","RA_OF_ASC_NODE":"205.9447","ARG_OF_PERICENTER":"72.7469","GP_ID":"195711861","EPHEMERIS_TYPE":"0","DECAY_DATE":null,"OBJECT_NAME":"STARLINK-1217","FILE":"3297147","TIME_SYSTEM":"UTC","INCLINATION":"53.0540","SEMIMAJOR_AXIS":"6925.345","ELEMENT_SET_NO":"999","MEAN_ELEMENT_THEORY":"SGP4","CLASSIFICATION_TYPE":"U","OBJECT_ID":"2020-012BA","LAUNCH_DATE":"2020-02-17","BSTAR":"0.00010102000000","EPOCH":"2022-02-10T19:33:13.014144","OBJECT_TYPE":"PAYLOAD","MEAN_ANOMALY":"287.3684","REF_FRAME":"TEME","SITE":"AFETR","TLE_LINE2":"2 45226  53.0540 205.9447 0001500  72.7469 287.3684 15.06401061111050","ECCENTRICITY":"0.00015000","MEAN_MOTION_DDOT":"0.0000000000000","PERIAPSIS":"546.172","RCS_SIZE":"LARGE","CENTER_NAME":"EARTH","MEAN_MOTION":"15.06401061","APOAPSIS":"548.249"},{"EPOCH":"2022-02-10T18:29:31.682112","BSTAR":"0.00003001900000","LAUNCH_DATE":"2020-02-17","TLE_LINE2":"2 45227  53.0528 206.1441 0001522  67.0446 293.0703 15.06394050111055","REF_FRAME":"TEME","SITE":"AFETR","MEAN_ANOMALY":"293.0703","OBJECT_TYPE":"PAYLOAD","PERIAPSIS":"546.178","RCS_SIZE":"LARGE","MEAN_MOTION_DDOT":"0.0000000000000","ECCENTRICITY":"0.00015220","APOAPSIS":"548.286","MEAN_MOTION":"15.06394050","CENTER_NAME":"EARTH","REV_AT_EPOCH":"11105","COUNTRY_CODE":"US","RA_OF_ASC_NODE":"206.1441","MEAN_MOTION_DOT":"0.00000166","TLE_LINE1":"1 45227U 20012BB  22041.77050558  .00000166  00000-0  30019-4 0  9991","NORAD_CAT_ID":"45227","PERIOD":"95.593","OBJECT_NAME":"STARLINK-1221","DECAY_DATE":null,"EPHEMERIS_TYPE":"0","GP_ID":"195712111","ARG_OF_PERICENTER":"67.0446","OBJECT_ID":"2020-012BB","CLASSIFICATION_TYPE":"U","MEAN_ELEMENT_THEORY":"SGP4","SEMIMAJOR_AXIS":"6925.367","ELEMENT_SET_NO":"999","INCLINATION":"53.0528","TIME_SYSTEM":"UTC","FILE":"3297147"},{"APOAPSIS":"548.310","MEAN_MOTION":"15.06405796","CENTER_NAME":"EARTH","RCS_SIZE":"LARGE","PERIAPSIS":"546.082","MEAN_MOTION_DDOT":"0.0000000000000","ECCENTRICITY":"0.00016090","TLE_LINE2":"2 45228  53.0523 205.8260 0001609  70.9914 289.1249 15.06405796111034","SITE":"AFETR","REF_FRAME":"TEME","MEAN_ANOMALY":"289.1249","OBJECT_TYPE":"PAYLOAD","EPOCH":"2022-02-10T20:10:22.022688","BSTAR":"0.00034938000000","LAUNCH_DATE":"2020-02-17","OBJECT_ID":"2020-012BC","MEAN_ELEMENT_THEORY":"SGP4","CLASSIFICATION_TYPE":"U","SEMIMAJOR_AXIS":"6925.331","ELEMENT_SET_NO":"999","INCLINATION":"53.0523","TIME_SYSTEM":"UTC","FILE":"3297147","OBJECT_NAME":"STARLINK-1222","DECAY_DATE":null,"EPHEMERIS_TYPE":"0","GP_ID":"195712863","ARG_OF_PERICENTER":"70.9914","RA_OF_ASC_NODE":"205.8260","MEAN_MOTION_DOT":"0.00004927","TLE_LINE1":"1 45228U 20012BC  22041.84053267  .00004927  00000-0  34938-3 0  9992","NORAD_CAT_ID":"45228","PERIOD":"95.592","REV_AT_EPOCH":"11103","COUNTRY_CODE":"US"},{"CENTER_NAME":"EARTH","MEAN_MOTION":"15.06409449","APOAPSIS":"548.419","ECCENTRICITY":"0.00017820","MEAN_MOTION_DDOT":"0.0000000000000","RCS_SIZE":"LARGE","PERIAPSIS":"545.951","MEAN_ANOMALY":"284.9231","OBJECT_TYPE":"PAYLOAD","TLE_LINE2":"2 45229  53.0542 205.7007 0001782  75.1955 284.9231 15.06409449111042","REF_FRAME":"TEME","SITE":"AFETR","LAUNCH_DATE":"2020-02-17","BSTAR":"0.00033466000000","EPOCH":"2022-02-10T20:52:50.839104","TIME_SYSTEM":"UTC","FILE":"3297147","INCLINATION":"53.0542","MEAN_ELEMENT_THEORY":"SGP4","CLASSIFICATION_TYPE":"U","ELEMENT_SET_NO":"999","SEMIMAJOR_AXIS":"6925.320","OBJECT_ID":"2020-012BD","ARG_OF_PERICENTER":"75.1955","GP_ID":"195712613","EPHEMERIS_TYPE":"0","DECAY_DATE":null,"OBJECT_NAME":"STARLINK-1226","NORAD_CAT_ID":"45229","PERIOD":"95.592","TLE_LINE1":"1 45229U 20012BD  22041.87003286  .00004708  00000-0  33466-3 0  9994","MEAN_MOTION_DOT":"0.00004708","RA_OF_ASC_NODE":"205.7007","COUNTRY_CODE":"US","REV_AT_EPOCH":"11104"},{"EPOCH":"2022-02-10T20:47:31.526304","LAUNCH_DATE":"2020-02-17","BSTAR":"0.00002790500000","MEAN_ANOMALY":"283.8086","OBJECT_TYPE":"PAYLOAD","TLE_LINE2":"2 45230  53.0540 205.7114 0001802  76.3104 283.8086 15.06400372111168","SITE":"AFETR","REF_FRAME":"TEME","MEAN_MOTION_DDOT":"0.0000000000000","PERIAPSIS":"545.964","RCS_SIZE":"LARGE","ECCENTRICITY":"0.00018020","APOAPSIS":"548.460","CENTER_NAME":"EARTH","MEAN_MOTION":"15.06400372","COUNTRY_CODE":"US","REV_AT_EPOCH":"11116","RA_OF_ASC_NODE":"205.7114","NORAD_CAT_ID":"45230","PERIOD":"95.592","TLE_LINE1":"1 45230U 20012BE  22041.86633711  .00000134  00000-0  27905-4 0  9998","MEAN_MOTION_DOT":"0.00000134","EPHEMERIS_TYPE":"0","DECAY_DATE":null,"OBJECT_NAME":"STARLINK-1227","ARG_OF_PERICENTER":"76.3104","GP_ID":"195711362","MEAN_ELEMENT_THEORY":"SGP4","CLASSIFICATION_TYPE":"U","ELEMENT_SET_NO":"999","SEMIMAJOR_AXIS":"6925.347","OBJECT_ID":"2020-012BE","TIME_SYSTEM":"UTC","FILE":"3297147","INCLINATION":"53.0540"},{"RA_OF_ASC_NODE":"96.5837","MEAN_MOTION_DOT":"-0.00003606","TLE_LINE1":"1 45231U 20012BF  22041.49785582 -.00003606  00000-0 -17941-4 0  9990","NORAD_CAT_ID":"45231","PERIOD":"91.328","REV_AT_EPOCH":"11251","COUNTRY_CODE":"US","OBJECT_ID":"2020-012BF","CLASSIFICATION_TYPE":"U","MEAN_ELEMENT_THEORY":"SGP4","SEMIMAJOR_AXIS":"6717.839","ELEMENT_SET_NO":"999","INCLINATION":"53.0304","TIME_SYSTEM":"UTC","FILE":"3296865","OBJECT_NAME":"STARLINK-1229","DECAY_DATE":null,"EPHEMERIS_TYPE":"0","GP_ID":"195680328","ARG_OF_PERICENTER":"316.9335","TLE_LINE2":"2 45231  53.0304  96.5837 0006731 316.9335  43.1156 15.76733944112516","SITE":"AFETR","REF_FRAME":"TEME","MEAN_ANOMALY":"43.1156","OBJECT_TYPE":"PAYLOAD","EPOCH":"2022-02-10T11:56:54.742848","BSTAR":"-0.00001794100000","LAUNCH_DATE":"2020-02-17","APOAPSIS":"344.225","MEAN_MOTION":"15.76733944","CENTER_NAME":"EARTH","PERIAPSIS":"335.182","RCS_SIZE":"LARGE","MEAN_MOTION_DDOT":"0.0000000000000","ECCENTRICITY":"0.00067310"},{"MEAN_ANOMALY":"293.8690","OBJECT_TYPE":"PAYLOAD","TLE_LINE2":"2 45232  53.0539 205.6613 0001632  66.2470 293.8690 15.06396726111154","SITE":"AFETR","REF_FRAME":"TEME","LAUNCH_DATE":"2020-02-17","BSTAR":"0.00005415000000","EPOCH":"2022-02-10T21:03:27.467136","CENTER_NAME":"EARTH","MEAN_MOTION":"15.06396726","APOAPSIS":"548.354","ECCENTRICITY":"0.00016320","MEAN_MOTION_DDOT":"0.0000000000000","PERIAPSIS":"546.093","RCS_SIZE":"LARGE","NORAD_CAT_ID":"45232","PERIOD":"95.592","TLE_LINE1":"1 45232U 20012BG  22041.87740124  .00000525  00000-0  54150-4 0  9994","MEAN_MOTION_DOT":"0.00000525","RA_OF_ASC_NODE":"205.6613","COUNTRY_CODE":"US","REV_AT_EPOCH":"11115","TIME_SYSTEM":"UTC","FILE":"3297147","INCLINATION":"53.0539","MEAN_ELEMENT_THEORY":"SGP4","CLASSIFICATION_TYPE":"U","ELEMENT_SET_NO":"999","SEMIMAJOR_AXIS":"6925.359","OBJECT_ID":"2020-012BG","ARG_OF_PERICENTER":"66.2470","GP_ID":"195712364","EPHEMERIS_TYPE":"0","OBJECT_NAME":"STARLINK-1235","DECAY_DATE":null}];
